ONEWEB-0492             
1 54114U 22138B   25271.21282939  .00000065  00000+0  12937-3 0  9999
2 54114  87.9283 357.0756 0001811 107.4802 252.6529 13.19725935142283
ONEWEB-0495             
1 54115U 22138C   25271.19072161  .00000133  00000+0  29956-3 0  9996
2 54115  87.9276 357.0877 0001236 117.4942 242.6316 13.19724901142260
ONEWEB-0497             
1 54116U 22138D   25271.27917716  .00000201  00000+0  46964-3 0  9994
2 54116  87.9291 357.0487 0001699 100.8546 259.2778 13.19725345142263
ONEWEB-0499             
1 54117U 22138E   25270.80697037 -.00000034  00000+0 -11625-3 0  9996
2 54117  87.9280 357.1585 0001589  96.3785 263.7529 13.19725103142215
ONEWEB-0500             
1 54118U 22138F   25270.81006463  .00000218  00000+0  51131-3 0  9993
2 54118  87.9285 357.1448 0001804  99.8470 260.2866 13.19725667142220
ONEWEB-0501             
1 54119U 22138G   25271.21915362  .00000087  00000+0  18484-3 0  9994
2 54119  87.9289 357.0567 0001389 103.9859 256.1428 13.19724963142251
ONEWEB-0502             
1 54120U 22138H   25271.28074545  .00000091  00000+0  19543-3 0  9994
2 54120  87.9292 357.0273 0001514  98.6627 261.4677 13.19726424142286
ONEWEB-0503             
1 54121U 22138J   25271.26969286  .00000130  00000+0  29284-3 0  9995
2 54121  87.9289 357.0335 0001771  90.2366 269.8970 13.19725680142275
